[{"OBJECT_NAME":"STARLINK-1741","OBJECT_ID":"2020-070AM","EPOCH":"2026-03-10T00:00:02.999808","MEAN_MOTION":15.63456051,"ECCENTRICITY":0.00023144,"INCLINATION":53.0419,"RA_OF_ASC_NODE":116.274,"ARG_OF_PERICENTER":167.1739,"MEAN_ANOMALY":276.5113,"EPHEMERIS_TYPE":0,"CLASSIFICATION_TYPE":"U","NORAD_CAT_ID":46567,"ELEMENT_SET_NO":999,"REV_AT_EPOCH":584,"BSTAR":0.002236825,"MEAN_MOTION_DOT":0.00215668,"MEAN_MOTION_DDOT":0},{"OBJECT_NAME":"STARLINK-1922","OBJECT_ID":"2020-074Q","EPOCH":"2026-03-10T00:00:02.999808","MEAN_MOTION":15.64274627,"ECCENTRICITY":0.00017441,"INCLINATION":53.0458,"RA_OF_ASC_NODE":282.2242,"ARG_OF_PERICENTER":17.2501,"MEAN_ANOMALY":256.8441,"EPHEMERIS_TYPE":0,"CLASSIFICATION_TYPE":"U","NORAD_CAT_ID":46753,"ELEMENT_SET_NO":999,"REV_AT_EPOCH":594,"BSTAR":0.0021356149,"MEAN_MOTION_DOT":0.00212554,"MEAN_MOTION_DDOT":0}]
